[{"OBJECT_NAME":"STARLINK-36834","OBJECT_ID":"2026-037AD","EPOCH":"2026-03-23T04:00:01.999584","MEAN_MOTION":15.50510822,"ECCENTRICITY":0.0001602,"INCLINATION":42.9996,"RA_OF_ASC_NODE":116.7221,"ARG_OF_PERICENTER":267.7966,"MEAN_ANOMALY":233.9698,"EPHEMERIS_TYPE":0,"CLASSIFICATION_TYPE":"U","NORAD_CAT_ID":67959,"ELEMENT_SET_NO":999,"REV_AT_EPOCH":536,"BSTAR":0.0011944555,"MEAN_MOTION_DOT":0.00070192,"MEAN_MOTION_DDOT":0},{"OBJECT_NAME":"STARLINK-36841","OBJECT_ID":"2026-037AE","EPOCH":"2026-03-23T04:00:01.999584","MEAN_MOTION":15.51725412,"ECCENTRICITY":0.00010421,"INCLINATION":42.9998,"RA_OF_ASC_NODE":116.6688,"ARG_OF_PERICENTER":295.8383,"MEAN_ANOMALY":227.4619,"EPHEMERIS_TYPE":0,"CLASSIFICATION_TYPE":"U","NORAD_CAT_ID":67960,"ELEMENT_SET_NO":999,"REV_AT_EPOCH":536,"BSTAR":-0.029183857,"MEAN_MOTION_DOT":-0.01604442,"MEAN_MOTION_DDOT":0},{"OBJECT_NAME":"STARLINK-36912","OBJECT_ID":"2026-038A","EPOCH":"2026-03-23T04:00:01.999584","MEAN_MOTION":15.45931846,"ECCENTRICITY":0.00019516,"INCLINATION":97.2852,"RA_OF_ASC_NODE":93.0011,"ARG_OF_PERICENTER":86.091,"MEAN_ANOMALY":114.4237,"EPHEMERIS_TYPE":0,"CLASSIFICATION_TYPE":"U","NORAD_CAT_ID":67961,"ELEMENT_SET_NO":999,"REV_AT_EPOCH":536,"BSTAR":-0.05587737,"MEAN_MOTION_DOT":-0.02417205,"MEAN_MOTION_DDOT":0},{"OBJECT_NAME":"STARLINK-36881","OBJECT_ID":"2026-038B","EPOCH":"2026-03-23T04:00:01.999584","MEAN_MOTION":15.45893159,"ECCENTRICITY":0.00015172,"INCLINATION":97.2852,"RA_OF_ASC_NODE":93.0062,"ARG_OF_PERICENTER":81.28,"MEAN_ANOMALY":132.0013,"EPHEMERIS_TYPE":0,"CLASSIFICATION_TYPE":"U","NORAD_CAT_ID":67962,"ELEMENT_SET_NO":999,"REV_AT_EPOCH":536,"BSTAR":-0.057847576,"MEAN_MOTION_DOT":-0.02489535,"MEAN_MOTION_DDOT":0},{"OBJECT_NAME":"STARLINK-36357","OBJECT_ID":"2026-038C","EPOCH":"2026-03-23T04:00:01.999584","MEAN_MOTION":15.49150294,"ECCENTRICITY":0.00011773,"INCLINATION":97.2855,"RA_OF_ASC_NODE":92.9723,"ARG_OF_PERICENTER":108.7683,"MEAN_ANOMALY":22.9152,"EPHEMERIS_TYPE":0,"CLASSIFICATION_TYPE":"U","NORAD_CAT_ID":67963,"ELEMENT_SET_NO":999,"REV_AT_EPOCH":536,"BSTAR":-5.3765808e-5,"MEAN_MOTION_DOT":-3.009e-5,"MEAN_MOTION_DDOT":0},{"OBJECT_NAME":"STARLINK-36349","OBJECT_ID":"2026-038D","EPOCH":"2026-03-23T04:00:01.999584","MEAN_MOTION":15.49156286,"ECCENTRICITY":0.00010026,"INCLINATION":97.2855,"RA_OF_ASC_NODE":92.969,"ARG_OF_PERICENTER":94.1623,"MEAN_ANOMALY":30.3406,"EPHEMERIS_TYPE":0,"CLASSIFICATION_TYPE":"U","NORAD_CAT_ID":67964,"ELEMENT_SET_NO":999,"REV_AT_EPOCH":536,"BSTAR":-2.9933633e-5,"MEAN_MOTION_DOT":-1.716e-5,"MEAN_MOTION_DDOT":0},{"OBJECT_NAME":"STARLINK-36806","OBJECT_ID":"2026-038E","EPOCH":"2026-03-23T04:00:01.999584","MEAN_MOTION":15.47007939,"ECCENTRICITY":0.00021306,"INCLINATION":97.2854,"RA_OF_ASC_NODE":93.0236,"ARG_OF_PERICENTER":98.3798,"MEAN_ANOMALY":152.0182,"EPHEMERIS_TYPE":0,"CLASSIFICATION_TYPE":"U","NORAD_CAT_ID":67965,"ELEMENT_SET_NO":999,"REV_AT_EPOCH":536,"BSTAR":-0.052778571,"MEAN_MOTION_DOT":-0.0237501,"MEAN_MOTION_DDOT":0},{"OBJECT_NAME":"STARLINK-36820","OBJECT_ID":"2026-038F","EPOCH":"2026-03-23T04:00:01.999584","MEAN_MOTION":15.47115816,"ECCENTRICITY":0.0001931,"INCLINATION":97.2853,"RA_OF_ASC_NODE":93.0298,"ARG_OF_PERICENTER":108.2822,"MEAN_ANOMALY":155.2114,"EPHEMERIS_TYPE":0,"CLASSIFICATION_TYPE":"U","NORAD_CAT_ID":67966,"ELEMENT_SET_NO":999,"REV_AT_EPOCH":536,"BSTAR":-0.051842034,"MEAN_MOTION_DOT":-0.023018,"MEAN_MOTION_DDOT":0},{"OBJECT_NAME":"STARLINK-36819","OBJECT_ID":"2026-038G","EPOCH":"2026-03-22T23:49:46.394112","MEAN_MOTION":15.4921578,"ECCENTRICITY":0.00014082,"INCLINATION":97.2845,"RA_OF_ASC_NODE":92.6935,"ARG_OF_PERICENTER":87.8823,"MEAN_ANOMALY":272.2589,"EPHEMERIS_TYPE":0,"CLASSIFICATION_TYPE":"U","NORAD_CAT_ID":67967,"ELEMENT_SET_NO":999,"REV_AT_EPOCH":526,"BSTAR":0.00063767418,"MEAN_MOTION_DOT":0.00034777,"MEAN_MOTION_DDOT":0},{"OBJECT_NAME":"STARLINK-36812","OBJECT_ID":"2026-038H","EPOCH":"2026-03-23T04:00:01.999584","MEAN_MOTION":15.48122216,"ECCENTRICITY":0.00019787,"INCLINATION":97.2855,"RA_OF_ASC_NODE":93.0403,"ARG_OF_PERICENTER":102.488,"MEAN_ANOMALY":181.495,"EPHEMERIS_TYPE":0,"CLASSIFICATION_TYPE":"U","NORAD_CAT_ID":67968,"ELEMENT_SET_NO":999,"REV_AT_EPOCH":536,"BSTAR":-0.05027559,"MEAN_MOTION_DOT":-0.02310926,"MEAN_MOTION_DDOT":0},{"OBJECT_NAME":"STARLINK-36709","OBJECT_ID":"2026-038J","EPOCH":"2026-03-23T04:00:01.999584","MEAN_MOTION":15.49704683,"ECCENTRICITY":0.00018272,"INCLINATION":97.2853,"RA_OF_ASC_NODE":93.0443,"ARG_OF_PERICENTER":118.212,"MEAN_ANOMALY":175.7665,"EPHEMERIS_TYPE":0,"CLASSIFICATION_TYPE":"U","NORAD_CAT_ID":67969,"ELEMENT_SET_NO":999,"REV_AT_EPOCH":536,"BSTAR":-0.03987456,"MEAN_MOTION_DOT":-0.01977003,"MEAN_MOTION_DDOT":0},{"OBJECT_NAME":"STARLINK-36319","OBJECT_ID":"2026-038K","EPOCH":"2026-03-23T04:00:01.999584","MEAN_MOTION":15.49504462,"ECCENTRICITY":0.00012941,"INCLINATION":97.2849,"RA_OF_ASC_NODE":92.9957,"ARG_OF_PERICENTER":131.9572,"MEAN_ANOMALY":57.0114,"EPHEMERIS_TYPE":0,"CLASSIFICATION_TYPE":"U","NORAD_CAT_ID":67970,"ELEMENT_SET_NO":999,"REV_AT_EPOCH":533,"BSTAR":-0.013361436,"MEAN_MOTION_DOT":-0.0067507,"MEAN_MOTION_DDOT":0},{"OBJECT_NAME":"STARLINK-36710","OBJECT_ID":"2026-038L","EPOCH":"2026-03-23T04:00:01.999584","MEAN_MOTION":15.48795026,"ECCENTRICITY":0.00017064,"INCLINATION":97.2855,"RA_OF_ASC_NODE":93.0563,"ARG_OF_PERICENTER":109.7845,"MEAN_ANOMALY":211.6118,"EPHEMERIS_TYPE":0,"CLASSIFICATION_TYPE":"U","NORAD_CAT_ID":67971,"ELEMENT_SET_NO":999,"REV_AT_EPOCH":536,"BSTAR":-0.048948207,"MEAN_MOTION_DOT":-0.02304457,"MEAN_MOTION_DDOT":0},{"OBJECT_NAME":"STARLINK-36894","OBJECT_ID":"2026-038M","EPOCH":"2026-03-23T04:00:01.999584","MEAN_MOTION":15.49023409,"ECCENTRICITY":0.00017324,"INCLINATION":97.2856,"RA_OF_ASC_NODE":93.0621,"ARG_OF_PERICENTER":93.3357,"MEAN_ANOMALY":241.018,"EPHEMERIS_TYPE":0,"CLASSIFICATION_TYPE":"U","NORAD_CAT_ID":67972,"ELEMENT_SET_NO":999,"REV_AT_EPOCH":536,"BSTAR":-0.048688289,"MEAN_MOTION_DOT":-0.02310002,"MEAN_MOTION_DDOT":0},{"OBJECT_NAME":"STARLINK-36900","OBJECT_ID":"2026-038N","EPOCH":"2026-03-23T00:00:02.000160","MEAN_MOTION":15.49211857,"ECCENTRICITY":0.0001307,"INCLINATION":97.2859,"RA_OF_ASC_NODE":92.7616,"ARG_OF_PERICENTER":87.8712,"MEAN_ANOMALY":89.9605,"EPHEMERIS_TYPE":0,"CLASSIFICATION_TYPE":"U","NORAD_CAT_ID":67973,"ELEMENT_SET_NO":999,"REV_AT_EPOCH":534,"BSTAR":-0.00071905043,"MEAN_MOTION_DOT":-0.00039035,"MEAN_MOTION_DDOT":0},{"OBJECT_NAME":"STARLINK-36901","OBJECT_ID":"2026-038P","EPOCH":"2026-03-23T04:00:01.999584","MEAN_MOTION":15.49570034,"ECCENTRICITY":0.0001659,"INCLINATION":97.2854,"RA_OF_ASC_NODE":93.0654,"ARG_OF_PERICENTER":79.3054,"MEAN_ANOMALY":262.7544,"EPHEMERIS_TYPE":0,"CLASSIFICATION_TYPE":"U","NORAD_CAT_ID":67974,"ELEMENT_SET_NO":999,"REV_AT_EPOCH":536,"BSTAR":-0.044531705,"MEAN_MOTION_DOT":-0.02172078,"MEAN_MOTION_DDOT":0}]
