STARLINK-36834          
1 67959U 26037AD  26082.16668981  .00070192  00000+0  11945-2 0  9997
2 67959  42.9996 116.7221 0001602 267.7966 233.9698 15.50510822  5362
STARLINK-36841          
1 67960U 26037AE  26082.16668981 -.01604442  00000+0 -29184-1 0  9996
2 67960  42.9998 116.6688 0001042 295.8383 227.4619 15.51725412  5360
STARLINK-36912          
1 67961U 26038A   26082.16668981 -.02417205  00000+0 -55877-1 0  9996
2 67961  97.2852  93.0011 0001951  86.0910 114.4237 15.45931846  5360
STARLINK-36881          
1 67962U 26038B   26082.16668981 -.02489535  00000+0 -57848-1 0  9992
2 67962  97.2852  93.0062 0001517  81.2800 132.0013 15.45893159  5362
STARLINK-36357          
1 67963U 26038C   26082.16668981 -.00003009  00000+0 -53766-4 0  9997
2 67963  97.2855  92.9723 0001177 108.7683  22.9152 15.49150294  5365
STARLINK-36349          
1 67964U 26038D   26082.16668981 -.00001716  00000+0 -29934-4 0  9991
2 67964  97.2855  92.9690 0001002  94.1623  30.3406 15.49156286  5360
STARLINK-36806          
1 67965U 26038E   26082.16668981 -.02375010  00000+0 -52779-1 0  9995
2 67965  97.2854  93.0236 0002130  98.3798 152.0182 15.47007939  5361
STARLINK-36820          
1 67966U 26038F   26082.16668981 -.02301800  00000+0 -51842-1 0  9992
2 67966  97.2853  93.0298 0001931 108.2822 155.2114 15.47115816  5360
STARLINK-36819          
1 67967U 26038G   26081.99289808  .00034777  00000+0  63767-3 0  9993
2 67967  97.2845  92.6935 0001408  87.8823 272.2589 15.49215780  5265
STARLINK-36812          
1 67968U 26038H   26082.16668981 -.02310926  00000+0 -50276-1 0  9993
2 67968  97.2855  93.0403 0001978 102.4880 181.4950 15.48122216  5365
STARLINK-36709          
1 67969U 26038J   26082.16668981 -.01977003  00000+0 -39875-1 0  9990
2 67969  97.2853  93.0443 0001827 118.2120 175.7665 15.49704683  5367
STARLINK-36319          
1 67970U 26038K   26082.16668981 -.00675070  00000+0 -13361-1 0  9992
2 67970  97.2849  92.9957 0001294 131.9572  57.0114 15.49504462  5334
STARLINK-36710          
1 67971U 26038L   26082.16668981 -.02304457  00000+0 -48948-1 0  9992
2 67971  97.2855  93.0563 0001706 109.7845 211.6118 15.48795026  5363
STARLINK-36894          
1 67972U 26038M   26082.16668981 -.02310002  00000+0 -48688-1 0  9997
2 67972  97.2856  93.0621 0001732  93.3357 241.0180 15.49023409  5361
STARLINK-36900          
1 67973U 26038N   26082.00002315 -.00039035  00000+0 -71905-3 0  9996
2 67973  97.2859  92.7616 0001307  87.8712  89.9605 15.49211857  5341
STARLINK-36901          
1 67974U 26038P   26082.16668981 -.02172078  00000+0 -44532-1 0  9992
2 67974  97.2854  93.0654 0001659  79.3054 262.7544 15.49570034  5368
